OBJECT_NAME,OBJECT_ID,EPOCH,MEAN_MOTION,ECCENTRICITY,INCLINATION,RA_OF_ASC_NODE,ARG_OF_PERICENTER,MEAN_ANOMALY,EPHEMERIS_TYPE,CLASSIFICATION_TYPE,NORAD_CAT_ID,ELEMENT_SET_NO,REV_AT_EPOCH,BSTAR,MEAN_MOTION_DOT,MEAN_MOTION_DDOT
SCD 1,1993-009B,2026-07-17T21:12:10.443744,14.46129286,.00420879,24.9706,18.0431,102.8494,6.8076,0,U,22490,999,76556,.31331424E-4,.3E-5,0
TECHSAT 1B (GO-32),1998-043D,2026-07-17T23:18:35.793504,14.24433657,.00022668,99.0087,192.5089,110.8541,249.2880,0,U,25397,999,45571,.2148049E-4,.3E-7,0
SCD 2,1998-060A,2026-07-18T07:20:34.758240,14.45535347,.00170071,24.9940,240.2525,91.9151,349.8363,0,U,25504,999,46483,.2260246E-4,.263E-5,0
DLR-TUBSAT,1999-029B,2026-07-18T05:24:07.467552,14.52433593,.00130069,98.6712,195.7530,254.7242,105.2515,0,U,25757,999,43775,.11808865E-4,0,0
TERRA,1999-068A,2026-07-18T05:56:49.259040,14.61125040,.00035248,97.9439,247.5598,116.8300,317.7210,0,U,25994,999,41414,.4241772E-4,.164E-5,0
MAROC-TUBSAT,2001-056D,2026-07-18T06:37:04.062144,13.70263589,.00205588,99.8101,16.7237,64.4985,108.1586,0,U,27004,999,23044,.5828207E-5,-.41E-6,0
AQUA,2002-022A,2026-07-18T06:26:38.232384,14.62130949,.00012441,98.4299,169.1768,101.4413,9.3055,0,U,27424,999,28781,.75901232E-4,.332E-5,0
SHIYAN-1 (SY-1),2004-012A,2026-07-18T03:57:45.818496,15.34497285,.00041585,97.8681,279.2627,260.9627,99.1144,0,U,28220,999,21584,.21119515E-3,.697E-4,0
AURA,2004-026A,2026-07-18T05:00:20.467008,14.61370175,.00013651,98.3432,155.9225,93.7858,266.3498,0,U,28376,999,17074,.78018103E-4,.337E-5,0
IRS-P5 (CARTOSAT-1),2005-017A,2026-07-18T01:57:32.284224,14.91121369,.00012145,97.5305,220.7449,50.6977,309.4350,0,U,28649,999,14842,.78606201E-4,.727E-5,0
SINAH 1,2005-043D,2026-07-18T06:50:25.006560,14.64176548,.00146143,98.2898,333.7965,173.9245,186.2137,0,U,28893,999,10507,.32436456E-4,.121E-5,0
RESURS-DK 1,2006-021A,2026-07-18T04:03:01.447200,15.13325039,.00072738,69.9304,259.3467,267.7234,92.3099,0,U,29228,999,10726,.56430659E-4,.899E-5,0
ARIRANG-2 (KOMPSAT-2),2006-031A,2026-07-18T07:40:51.303936,14.64676568,.00139951,97.8311,22.2609,340.7618,142.3778,0,U,29268,999,6603,.35399748E-4,.143E-5,0
LAPAN-TUBSAT,2007-001A,2026-07-18T07:07:29.197344,14.85979663,.00136322,98.1351,199.2246,84.7662,275.5108,0,U,29709,999,5577,.7785259E-4,.623E-5,0
HAIYANG-1B,2007-010A,2026-07-17T21:49:50.677248,14.31033731,.00147243,98.3516,179.5662,108.3115,251.9672,0,U,31113,999,503,.28130751E-4,.33E-6,0
COSMO-SKYMED 1,2007-023A,2026-07-18T06:42:40.243680,14.97229209,.00016717,97.8850,31.3988,101.0917,259.0492,0,U,31598,999,3444,.14454285E-3,.1613E-4,0
TERRASAR-X,2007-026A,2026-07-07T11:29:59.023968,15.19153986,.0001878,97.4461,195.8972,86.9540,273.1909,0,U,31698,999,5630,.14624E-4,.24E-5,0
WORLDVIEW-1 (WV-1),2007-041A,2026-07-18T06:34:55.424640,15.24578191,.00018209,97.3907,318.5830,192.8605,167.2586,0,U,32060,999,4761,.12864186E-3,.3098E-4,0
YAOGAN-3,2007-055A,2026-07-18T08:05:23.368128,14.90886839,.00014522,97.8139,228.9073,77.1664,282.9716,0,U,32289,999,1051,.52127881E-4,.458E-5,0
COSMO-SKYMED 2,2007-059A,2026-07-18T06:48:06.381216,14.82151850,.000145,97.8896,22.4317,93.9204,266.2175,0,U,32376,999,661,.25905634E-4,.154E-5,0
RADARSAT-2,2007-061A,2026-07-18T07:33:17.710848,14.29983910,.00013206,98.5781,205.8034,84.8029,275.3304,0,U,32382,999,97040,.43131972E-4,.68E-6,0
CARTOSAT-2A,2008-021A,2026-07-18T07:08:15.238176,14.79279188,.00121942,97.7611,246.9419,17.7826,342.3811,0,U,32783,999,98340,.73334182E-4,.496E-5,0
HUANJING 1A (HJ-1A),2008-041A,2026-07-18T05:59:30.263712,14.84053837,.00201307,97.6700,183.8909,40.2768,319.9933,0,U,33320,999,96301,.1258002E-3,.1E-4,0
HUANJING 1B (HJ-1B),2008-041B,2026-07-18T07:12:39.993696,14.83367531,.00379697,97.6536,187.0169,81.4336,279.1178,0,U,33321,999,96302,.29305688E-4,.191E-5,0
GEOEYE 1,2008-042A,2026-07-18T05:39:08.544384,14.64650736,.00037277,98.1325,272.7957,335.8771,24.2256,0,U,33331,999,95469,.41255338E-4,.172E-5,0
THEOS,2008-049A,2026-07-18T07:43:10.492608,14.20136662,.00011154,98.5552,255.5918,89.9402,270.1903,0,U,33396,999,92238,-.55842227E-4,-.161E-5,0
COSMO-SKYMED 3,2008-054A,2026-07-18T06:47:45.679776,15.07128951,.0015997,97.8245,58.3671,156.2784,203.9184,0,U,33412,999,96162,.15520088E-3,.2272E-4,0
YAOGAN-4,2008-061A,2026-07-18T06:24:16.195104,14.83254423,.00135673,97.9303,132.5490,335.2907,24.7655,0,U,33446,999,95027,.62534165E-4,.458E-5,0
GOSAT (IBUKI),2009-002A,2026-07-18T03:52:11.621568,14.67541622,.00011218,98.0915,309.8581,89.0100,271.1233,0,U,33492,999,93600,.58949431E-4,.286E-5,0
DEIMOS-1,2009-041A,2026-07-18T06:01:10.331328,14.75263981,.00028215,97.7439,355.1375,88.5914,271.5619,0,U,35681,999,91146,-.8561542E-5,-.106E-5,0
