SCD 1                   
1 22490U 93009B   26198.88345421  .00000300  00000+0  31331-4 0  9996
2 22490  24.9706  18.0431 0042087 102.8494   6.8076 14.46129286765562
TECHSAT 1B (GO-32)      
1 25397U 98043D   26198.97124761  .00000003  00000+0  21480-4 0  9994
2 25397  99.0087 192.5089 0002266 110.8541 249.2880 14.24433657455715
SCD 2                   
1 25504U 98060A   26199.30595785  .00000263  00000+0  22602-4 0  9994
2 25504  24.9940 240.2525 0017007  91.9151 349.8363 14.45535347464839
DLR-TUBSAT              
1 25757U 99029B   26199.22508643  .00000000  00000+0  11809-4 0  9994
2 25757  98.6712 195.7530 0013006 254.7242 105.2515 14.52433593437751
TERRA                   
1 25994U 99068A   26199.24779235  .00000164  00000+0  42418-4 0  9990
2 25994  97.9439 247.5598 0003524 116.8300 317.7210 14.61125040414144
MAROC-TUBSAT            
1 27004U 01056D   26199.27574146 -.00000041  00000+0  58282-5 0  9993
2 27004  99.8101  16.7237 0020558  64.4985 108.1586 13.70263589230441
AQUA                    
1 27424U 02022A   26199.26849806  .00000332  00000+0  75901-4 0  9998
2 27424  98.4299 169.1768 0001244 101.4413   9.3055 14.62130949287812
SHIYAN-1 (SY-1)         
1 28220U 04012A   26199.16511364  .00006970  00000+0  21120-3 0  9995
2 28220  97.8681 279.2627 0004158 260.9627  99.1144 15.34497285215846
AURA                    
1 28376U 04026A   26199.20857022  .00000337  00000+0  78018-4 0  9991
2 28376  98.3432 155.9225 0001365  93.7858 266.3498 14.61370175170743
IRS-P5 (CARTOSAT-1)     
1 28649U 05017A   26199.08162366  .00000727  00000+0  78606-4 0  9997
2 28649  97.5305 220.7449 0001214  50.6977 309.4350 14.91121369148420
SINAH 1                 
1 28893U 05043D   26199.28501165  .00000121  00000+0  32436-4 0  9992
2 28893  98.2898 333.7965 0014614 173.9245 186.2137 14.64176548105076
RESURS-DK 1             
1 29228U 06021A   26199.16876675  .00000899  00000+0  56431-4 0  9993
2 29228  69.9304 259.3467 0007273 267.7234  92.3099 15.13325039107262
ARIRANG-2 (KOMPSAT-2)   
1 29268U 06031A   26199.32003824  .00000143  00000+0  35400-4 0  9999
2 29268  97.8311  22.2609 0013995 340.7618 142.3778 14.64676568 66035
LAPAN-TUBSAT            
1 29709U 07001A   26199.29686571  .00000623  00000+0  77853-4 0  9990
2 29709  98.1351 199.2246 0013632  84.7662 275.5108 14.85979663 55777
HAIYANG-1B              
1 31113U 07010A   26198.90961432  .00000033  00000+0  28131-4 0  9991
2 31113  98.3516 179.5662 0014724 108.3115 251.9672 14.31033731  5032
COSMO-SKYMED 1          
1 31598U 07023A   26199.27963245  .00001613  00000+0  14454-3 0  9994
2 31598  97.8850  31.3988 0001671 101.0917 259.0492 14.97229209 34442
TERRASAR-X              
1 31698U 07026A   26188.47915537  .00000240  00000+0  14624-4 0  9994
2 31698  97.4461 195.8972 0001878  86.9540 273.1909 15.19153986 56300
WORLDVIEW-1 (WV-1)      
1 32060U 07041A   26199.27425260  .00003098  00000+0  12864-3 0  9991
2 32060  97.3907 318.5830 0001820 192.8605 167.2586 15.24578191 47614
YAOGAN-3                
1 32289U 07055A   26199.33707602  .00000458  00000+0  52128-4 0  9994
2 32289  97.8139 228.9073 0001452  77.1664 282.9716 14.90886839 10515
COSMO-SKYMED 2          
1 32376U 07059A   26199.28340719  .00000154  00000+0  25906-4 0  9998
2 32376  97.8896  22.4317 0001450  93.9204 266.2175 14.82151850  6613
RADARSAT-2              
1 32382U 07061A   26199.31478832  .00000068  00000+0  43132-4 0  9995
2 32382  98.5781 205.8034 0001320  84.8029 275.3304 14.29983910970407
CARTOSAT-2A             
1 32783U 08021A   26199.29739859  .00000496  00000+0  73334-4 0  9995
2 32783  97.7611 246.9419 0012194  17.7826 342.3811 14.79279188983401
HUANJING 1A (HJ-1A)     
1 33320U 08041A   26199.24965583  .00001000  00000+0  12580-3 0  9992
2 33320  97.6700 183.8909 0020130  40.2768 319.9933 14.84053837963012
HUANJING 1B (HJ-1B)     
1 33321U 08041B   26199.30046289  .00000191  00000+0  29306-4 0  9998
2 33321  97.6536 187.0169 0037969  81.4336 279.1178 14.83367531963027
GEOEYE 1                
1 33331U 08042A   26199.23551556  .00000172  00000+0  41255-4 0  9996
2 33331  98.1325 272.7957 0003727 335.8771  24.2256 14.64650736954691
THEOS                   
1 33396U 08049A   26199.32164922 -.00000161  00000+0 -55842-4 0  9998
2 33396  98.5552 255.5918 0001115  89.9402 270.1903 14.20136662922382
COSMO-SKYMED 3          
1 33412U 08054A   26199.28316759  .00002272  00000+0  15520-3 0  9996
2 33412  97.8245  58.3671 0015997 156.2784 203.9184 15.07128951961624
YAOGAN-4                
1 33446U 08061A   26199.26685411  .00000458  00000+0  62534-4 0  9995
2 33446  97.9303 132.5490 0013567 335.2907  24.7655 14.83254423950276
GOSAT (IBUKI)           
1 33492U 09002A   26199.16124562  .00000286  00000+0  58949-4 0  9990
2 33492  98.0915 309.8581 0001121  89.0100 271.1233 14.67541622936007
DEIMOS-1                
1 35681U 09041A   26199.25081402 -.00000106  00000+0 -85615-5 0  9994
2 35681  97.7439 355.1375 0002821  88.5914 271.5619 14.75263981911469
